[{"OBJECT_NAME":"STARLINK-34007","OBJECT_ID":"2025-094E","EPOCH":"2026-03-09T20:31:26.186880","MEAN_MOTION":14.98405216,"ECCENTRICITY":0.00045816,"INCLINATION":70.0017,"RA_OF_ASC_NODE":234.2102,"ARG_OF_PERICENTER":277.8261,"MEAN_ANOMALY":82.2378,"EPHEMERIS_TYPE":0,"CLASSIFICATION_TYPE":"U","NORAD_CAT_ID":63868,"ELEMENT_SET_NO":999,"REV_AT_EPOCH":4722,"BSTAR":-0.00099610286,"MEAN_MOTION_DOT":-0.00011983,"MEAN_MOTION_DDOT":0},{"OBJECT_NAME":"COSMOS 2251 DEB","OBJECT_ID":"1993-036NN","EPOCH":"2026-03-09T07:26:11.225760","MEAN_MOTION":14.9633519,"ECCENTRICITY":0.00121484,"INCLINATION":74.0636,"RA_OF_ASC_NODE":162.8967,"ARG_OF_PERICENTER":260.3814,"MEAN_ANOMALY":99.5998,"EPHEMERIS_TYPE":0,"CLASSIFICATION_TYPE":"U","NORAD_CAT_ID":34316,"ELEMENT_SET_NO":999,"REV_AT_EPOCH":90502,"BSTAR":0.0021825431,"MEAN_MOTION_DOT":0.00024784,"MEAN_MOTION_DDOT":0}]
